[{"OBJECT_NAME":"ORBITER SN3","OBJECT_ID":"2023-084AE","EPOCH":"2026-03-09T23:12:21.976128","MEAN_MOTION":15.32943891,"ECCENTRICITY":0.00075889,"INCLINATION":97.61,"RA_OF_ASC_NODE":206.6768,"ARG_OF_PERICENTER":331.7947,"MEAN_ANOMALY":28.2883,"EPHEMERIS_TYPE":0,"CLASSIFICATION_TYPE":"U","NORAD_CAT_ID":56960,"ELEMENT_SET_NO":999,"REV_AT_EPOCH":15228,"BSTAR":0.00032835432,"MEAN_MOTION_DOT":0.00010378,"MEAN_MOTION_DDOT":0},{"OBJECT_NAME":"STARLINK-30700","OBJECT_ID":"2023-148U","EPOCH":"2026-03-09T23:34:44.787648","MEAN_MOTION":15.30185681,"ECCENTRICITY":0.00011054,"INCLINATION":53.1614,"RA_OF_ASC_NODE":12.8508,"ARG_OF_PERICENTER":66.1024,"MEAN_ANOMALY":294.0093,"EPHEMERIS_TYPE":0,"CLASSIFICATION_TYPE":"U","NORAD_CAT_ID":57953,"ELEMENT_SET_NO":999,"REV_AT_EPOCH":13860,"BSTAR":2.4725291e-5,"MEAN_MOTION_DOT":3.73e-6,"MEAN_MOTION_DDOT":0}]
